{"type": "FeatureCollection", "features": [ {"type": "Feature", "properties": {"norad_id": 29999, "name": "FENGYUN 1C DEB", "group": "fengyun-1c-debris", "lat": 38.28674649637601, "lon": -34.45609565659695, "alt_km": 804.1158706636916, "timestamp": "2025-12-14T03:55:53.060489+00:00", "meta": {"OBJECT_NAME": "FENGYUN 1C DEB", "OBJECT_ID": "1999-025LZ", "EPOCH": "2025-12-12T21:35:47.154912", "MEAN_MOTION": 14.20134718, "ECCENTRICITY": 0.01895635, "INCLINATION": 98.5764, "RA_OF_ASC_NODE": 331.1595, "ARG_OF_PERICENTER": 126.0957, "MEAN_ANOMALY": 296.6359, "EPHEMERIS_TYPE": 0, "CLASSIFICATION_TYPE": "U", "NORAD_CAT_ID": 29999, "ELEMENT_SET_NO": 999, "REV_AT_EPOCH": 97726, "BSTAR": 0.0003981612, "MEAN_MOTION_DOT": 9.74e-06, "MEAN_MOTION_DDOT": 0}, "tle": {"line1": "1 29999U 99025LZ  25346.89985133  .00000974  00000+0  39816-3 0  9998", "line2": "2 29999  98.5764 331.1595 0189563 126.0957 296.6359 14.20134718977260"}}, "geometry": {"type": "Point", "coordinates": [-34.45609565659695, 38.28674649637601]}}, {"type": "Feature", "properties": {"norad_id": 30001, "name": "FENGYUN 1C DEB", "group": "fengyun-1c-debris", "lat": 78.71807098846422, "lon": 11.009818783406145, "alt_km": 729.2061697970321, "timestamp": "2025-12-14T03:55:53.060512+00:00", "meta": {"OBJECT_NAME": "FENGYUN 1C DEB", "OBJECT_ID": "1999-025MA", "EPOCH": "2025-12-12T23:59:16.907136", "MEAN_MOTION": 14.38591444, "ECCENTRICITY": 0.00378334, "INCLINATION": 98.9595, "RA_OF_ASC_NODE": 62.0574, "ARG_OF_PERICENTER": 97.9264, "MEAN_ANOMALY": 78.8031, "EPHEMERIS_TYPE": 0, "CLASSIFICATION_TYPE": "U", "NORAD_CAT_ID": 30001, "ELEMENT_SET_NO": 999, "REV_AT_EPOCH": 97435, "BSTAR": 0.0038231614, "MEAN_MOTION_DOT": 0.00011773, "MEAN_MOTION_DDOT": 0}, "tle": {"line1": "1 30001U 99025MA  25346.99950124  .00011773  00000+0  38232-2 0  9996", "line2": "2 30001  98.9595  62.0574 0037833  97.9264  78.8031 14.38591444974354"}}, "geometry": {"type": "Point", "coordinates": [11.009818783406145, 78.71807098846422]}}, {"type": "Feature", "properties": {"norad_id": 30003, "name": "FENGYUN 1C DEB", "group": "fengyun-1c-debris", "lat": -21.19541830356003, "lon": -33.25193743445602, "alt_km": 1025.846161552041, "timestamp": "2025-12-14T03:55:53.060526+00:00", "meta": {"OBJECT_NAME": "FENGYUN 1C DEB", "OBJECT_ID": "1999-025MC", "EPOCH": "2025-12-12T21:09:16.429824", "MEAN_MOTION": 13.85624169, "ECCENTRICITY": 0.01433912, "INCLINATION": 99.5766, "RA_OF_ASC_NODE": 321.6845, "ARG_OF_PERICENTER": 119.4666, "MEAN_ANOMALY": 306.8767, "EPHEMERIS_TYPE": 0, "CLASSIFICATION_TYPE": "U", "NORAD_CAT_ID": 30003, "ELEMENT_SET_NO": 999, "REV_AT_EPOCH": 95490, "BSTAR": 0.00042472465, "MEAN_MOTION_DOT": 4.81e-06, "MEAN_MOTION_DDOT": 0}, "tle": {"line1": "1 30003U 99025MC  25346.88144016  .00000481  00000+0  42472-3 0  9997", "line2": "2 30003  99.5766 321.6845 0143391 119.4666 306.8767 13.85624169954902"}}, "geometry": {"type": "Point", "coordinates": [-33.25193743445602, -21.19541830356003]}}, {"type": "Feature", "properties": {"norad_id": 30004, "name": "FENGYUN 1C DEB", "group": "fengyun-1c-debris", "lat": -22.997482230004028, "lon": 173.29100714928046, "alt_km": 812.8103160754508, "timestamp": "2025-12-14T03:55:53.060537+00:00", "meta": {"OBJECT_NAME": "FENGYUN 1C DEB", "OBJECT_ID": "1999-025MD", "EPOCH": "2025-12-13T06:49:39.924768", "MEAN_MOTION": 14.17062778, "ECCENTRICITY": 0.00386017, "INCLINATION": 99.2235, "RA_OF_ASC_NODE": 168.425, "ARG_OF_PERICENTER": 341.3146, "MEAN_ANOMALY": 192.1927, "EPHEMERIS_TYPE": 0, "CLASSIFICATION_TYPE": "U", "NORAD_CAT_ID": 30004, "ELEMENT_SET_NO": 999, "REV_AT_EPOCH": 97314, "BSTAR": 0.0010890887, "MEAN_MOTION_DOT": 2.16e-05, "MEAN_MOTION_DDOT": 0}, "tle": {"line1": "1 30004U 99025MD  25347.28448987  .00002160  00000+0  10891-2 0  9992", "line2": "2 30004  99.2235 168.4250 0038601 341.3146 192.1927 14.17062778973143"}}, "geometry": {"type": "Point", "coordinates": [173.29100714928046, -22.997482230004028]}}, {"type": "Feature", "properties": {"norad_id": 30005, "name": "FENGYUN 1C DEB", "group": "fengyun-1c-debris", "lat": -20.876207906668256, "lon": 126.44570971199927, "alt_km": 1155.0370746781373, "timestamp": "2025-12-14T03:55:53.060547+00:00", "meta": {"OBJECT_NAME": "FENGYUN 1C DEB", "OBJECT_ID": "1999-025ME", "EPOCH": "2025-12-10T10:11:18.923712", "MEAN_MOTION": 13.5220875, "ECCENTRICITY": 0.03466929, "INCLINATION": 99.302, "RA_OF_ASC_NODE": 306.5165, "ARG_OF_PERICENTER": 99.2207, "MEAN_ANOMALY": 264.831, "EPHEMERIS_TYPE": 0, "CLASSIFICATION_TYPE": "U", "NORAD_CAT_ID": 30005, "ELEMENT_SET_NO": 999, "REV_AT_EPOCH": 92915, "BSTAR": 0.0015863148, "MEAN_MOTION_DOT": 1.487e-05, "MEAN_MOTION_DDOT": 0}, "tle": {"line1": "1 30005U 99025ME  25344.42452458  .00001487  00000+0  15863-2 0  9999", "line2": "2 30005  99.3020 306.5165 0346692  99.2207 264.8310 13.52208750929151"}}, "geometry": {"type": "Point", "coordinates": [126.44570971199927, -20.876207906668256]}}, {"type": "Feature", "properties": {"norad_id": 30007, "name": "FENGYUN 1C DEB", "group": "fengyun-1c-debris", "lat": 74.28042184907594, "lon": -145.4793495963828, "alt_km": 780.7733395355654, "timestamp": "2025-12-14T03:55:53.060558+00:00", "meta": {"OBJECT_NAME": "FENGYUN 1C DEB", "OBJECT_ID": "1999-025MG", "EPOCH": "2025-12-13T07:55:09.678432", "MEAN_MOTION": 14.25427368, "ECCENTRICITY": 0.00656299, "INCLINATION": 99.1774, "RA_OF_ASC_NODE": 248.705, "ARG_OF_PERICENTER": 13.1617, "MEAN_ANOMALY": 106.8731, "EPHEMERIS_TYPE": 0, "CLASSIFICATION_TYPE": "U", "NORAD_CAT_ID": 30007, "ELEMENT_SET_NO": 999, "REV_AT_EPOCH": 97364, "BSTAR": 0.0029721339, "MEAN_MOTION_DOT": 7.133e-05, "MEAN_MOTION_DDOT": 0}, "tle": {"line1": "1 30007U 99025MG  25347.32997313  .00007133  00000+0  29721-2 0  9999", "line2": "2 30007  99.1774 248.7050 0065629  13.1617 106.8731 14.25427368973649"}}, "geometry": {"type": "Point", "coordinates": [-145.4793495963828, 74.28042184907594]}}, {"type": "Feature", "properties": {"norad_id": 30008, "name": "FENGYUN 1C DEB", "group": "fengyun-1c-debris", "lat": -2.215832664989908, "lon": 124.37286301194787, "alt_km": 648.5645991694682, "timestamp": "2025-12-14T03:55:53.060569+00:00", "meta": {"OBJECT_NAME": "FENGYUN 1C DEB", "OBJECT_ID": "1999-025MH", "EPOCH": "2025-12-13T08:11:21.524640", "MEAN_MOTION": 14.66336718, "ECCENTRICITY": 0.00389779, "INCLINATION": 99.3686, "RA_OF_ASC_NODE": 303.801, "ARG_OF_PERICENTER": 190.2212, "MEAN_ANOMALY": 332.1142, "EPHEMERIS_TYPE": 0, "CLASSIFICATION_TYPE": "U", "NORAD_CAT_ID": 30008, "ELEMENT_SET_NO": 999, "REV_AT_EPOCH": 99068, "BSTAR": 0.0038473282, "MEAN_MOTION_DOT": 0.00021484, "MEAN_MOTION_DDOT": 0}, "tle": {"line1": "1 30008U 99025MH  25347.34122135  .00021484  00000+0  38473-2 0  9993", "line2": "2 30008  99.3686 303.8010 0038977 190.2212 332.1142 14.66336718990683"}}, "geometry": {"type": "Point", "coordinates": [124.37286301194787, -2.215832664989908]}}, {"type": "Feature", "properties": {"norad_id": 30009, "name": "FENGYUN 1C DEB", "group": "fengyun-1c-debris", "lat": -71.13767852624858, "lon": 70.76546318216491, "alt_km": 851.2145517534191, "timestamp": "2025-12-14T03:55:53.060579+00:00", "meta": {"OBJECT_NAME": "FENGYUN 1C DEB", "OBJECT_ID": "1999-025MJ", "EPOCH": "2025-12-13T02:38:12.211584", "MEAN_MOTION": 14.04857069, "ECCENTRICITY": 0.00638045, "INCLINATION": 99.0148, "RA_OF_ASC_NODE": 42.0302, "ARG_OF_PERICENTER": 334.3112, "MEAN_ANOMALY": 25.489, "EPHEMERIS_TYPE": 0, "CLASSIFICATION_TYPE": "U", "NORAD_CAT_ID": 30009, "ELEMENT_SET_NO": 999, "REV_AT_EPOCH": 96488, "BSTAR": 0.001018481, "MEAN_MOTION_DOT": 1.621e-05, "MEAN_MOTION_DDOT": 0}, "tle": {"line1": "1 30009U 99025MJ  25347.10986356  .00001621  00000+0  10185-2 0  9992", "line2": "2 30009  99.0148  42.0302 0063804 334.3112  25.4890 14.04857069964881"}}, "geometry": {"type": "Point", "coordinates": [70.76546318216491, -71.13767852624858]}}, {"type": "Feature", "properties": {"norad_id": 30010, "name": "FENGYUN 1C DEB", "group": "fengyun-1c-debris", "lat": -41.33397040109922, "lon": -7.708294911720993, "alt_km": 764.9353522745469, "timestamp": "2025-12-14T03:55:53.060590+00:00", "meta": {"OBJECT_NAME": "FENGYUN 1C DEB", "OBJECT_ID": "1999-025MK", "EPOCH": "2025-12-13T07:29:24.563040", "MEAN_MOTION": 14.24988138, "ECCENTRICITY": 0.00727046, "INCLINATION": 99.0697, "RA_OF_ASC_NODE": 179.4886, "ARG_OF_PERICENTER": 207.7261, "MEAN_ANOMALY": 327.0842, "EPHEMERIS_TYPE": 0, "CLASSIFICATION_TYPE": "U", "NORAD_CAT_ID": 30010, "ELEMENT_SET_NO": 999, "REV_AT_EPOCH": 98268, "BSTAR": 0.00021265351, "MEAN_MOTION_DOT": 4.64e-06, "MEAN_MOTION_DDOT": 0}, "tle": {"line1": "1 30010U 99025MK  25347.31208985  .00000464  00000+0  21265-3 0  9998", "line2": "2 30010  99.0697 179.4886 0072704 207.7261 327.0842 14.24988138982681"}}, "geometry": {"type": "Point", "coordinates": [-7.708294911720993, -41.33397040109922]}}, {"type": "Feature", "properties": {"norad_id": 30012, "name": "FENGYUN 1C DEB", "group": "fengyun-1c-debris", "lat": -26.08792514869765, "lon": 46.09454920647165, "alt_km": 1047.271859449219, "timestamp": "2025-12-14T03:55:53.060600+00:00", "meta": {"OBJECT_NAME": "FENGYUN 1C DEB", "OBJECT_ID": "1999-025MM", "EPOCH": "2025-12-13T02:23:07.581984", "MEAN_MOTION": 13.85765686, "ECCENTRICITY": 0.01370578, "INCLINATION": 99.4643, "RA_OF_ASC_NODE": 40.3349, "ARG_OF_PERICENTER": 144.7326, "MEAN_ANOMALY": 281.9408, "EPHEMERIS_TYPE": 0, "CLASSIFICATION_TYPE": "U", "NORAD_CAT_ID": 30012, "ELEMENT_SET_NO": 999, "REV_AT_EPOCH": 95553, "BSTAR": 0.00038440196, "MEAN_MOTION_DOT": 4.29e-06, "MEAN_MOTION_DDOT": 0}, "tle": {"line1": "1 30012U 99025MM  25347.09939331  .00000429  00000+0  38440-3 0  9995", "line2": "2 30012  99.4643  40.3349 0137057 144.7326 281.9408 13.85765686955530"}}, "geometry": {"type": "Point", "coordinates": [46.09454920647165, -26.08792514869765]}}]}